start=new Date('2022-02-17T00:00:00.000Z').valueOf();
sats=[{"INCLINATION":"53.0559","TLE_LINE2":"2 48372  53.0559 163.9381 0001491  57.8973 302.2161 15.06398372 43813","TIME_SYSTEM":"UTC","LAUNCH_DATE":"2021-05-04","GP_ID":"196130983","COUNTRY_CODE":"US","SITE":"AFETR","ECCENTRICITY":"0.00014910","NORAD_CAT_ID":"48372","OBJECT_NAME":"STARLINK-2572","BSTAR":"0.00014068000000","FILE":"3302660","SEMIMAJOR_AXIS":"6925.354","MEAN_ELEMENT_THEORY":"SGP4","RA_OF_ASC_NODE":"163.9381","OBJECT_ID":"2021-038V","ARG_OF_PERICENTER":"57.8973","CLASSIFICATION_TYPE":"U","PERIOD":"95.592","MEAN_ANOMALY":"302.2161","DECAY_DATE":null,"APOAPSIS":"548.251","ELEMENT_SET_NO":"999","EPOCH":"2022-02-16T20:00:06.610176","REF_FRAME":"TEME","OBJECT_TYPE":"PAYLOAD","EPHEMERIS_TYPE":"0","CENTER_NAME":"EARTH","RCS_SIZE":"LARGE","MEAN_MOTION":"15.06398372","REV_AT_EPOCH":"4381","MEAN_MOTION_DOT":"0.00001814","PERIAPSIS":"546.186","MEAN_MOTION_DDOT":"0.0000000000000","TLE_LINE1":"1 48372U 21038V   22047.83340984  .00001814  00000-0  14068-3 0  9998"},{"PERIOD":"95.592","CLASSIFICATION_TYPE":"U","MEAN_ANOMALY":"292.3169","APOAPSIS":"548.113","DECAY_DATE":null,"ELEMENT_SET_NO":"999","EPOCH":"2022-02-16T19:54:48.237408","OBJECT_TYPE":"PAYLOAD","REF_FRAME":"TEME","EPHEMERIS_TYPE":"0","CENTER_NAME":"EARTH","RCS_SIZE":"LARGE","MEAN_MOTION":"15.06396058","REV_AT_EPOCH":"4381","PERIAPSIS":"546.339","MEAN_MOTION_DOT":"0.00001909","MEAN_MOTION_DDOT":"0.0000000000000","TLE_LINE1":"1 48373U 21038W   22047.82972497  .00001909  00000-0  14702-3 0  9998","INCLINATION":"53.0545","TIME_SYSTEM":"UTC","LAUNCH_DATE":"2021-05-04","TLE_LINE2":"2 48373  53.0545 163.9615 0001281  67.7956 292.3169 15.06396058 43813","GP_ID":"196131733","COUNTRY_CODE":"US","SITE":"AFETR","ECCENTRICITY":"0.00012810","NORAD_CAT_ID":"48373","OBJECT_NAME":"STARLINK-2609","FILE":"3302660","BSTAR":"0.00014702000000","SEMIMAJOR_AXIS":"6925.361","RA_OF_ASC_NODE":"163.9615","MEAN_ELEMENT_THEORY":"SGP4","OBJECT_ID":"2021-038W","ARG_OF_PERICENTER":"67.7956"},{"PERIOD":"95.592","CLASSIFICATION_TYPE":"U","MEAN_ANOMALY":"290.7376","APOAPSIS":"548.332","DECAY_DATE":null,"ELEMENT_SET_NO":"999","EPOCH":"2022-02-16T15:02:53.067840","OBJECT_TYPE":"PAYLOAD","REF_FRAME":"TEME","EPHEMERIS_TYPE":"0","CENTER_NAME":"EARTH","MEAN_MOTION":"15.06394720","RCS_SIZE":"LARGE","REV_AT_EPOCH":"4378","PERIAPSIS":"546.127","MEAN_MOTION_DOT":"0.00000351","MEAN_MOTION_DDOT":"0.0000000000000","TLE_LINE1":"1 48374U 21038X   22047.62700310  .00000351  00000-0  42446-4 0  9997","INCLINATION":"53.0560","TIME_SYSTEM":"UTC","LAUNCH_DATE":"2021-05-04","TLE_LINE2":"2 48374  53.0560 164.8607 0001592  69.3784 290.7376 15.06394720 43786","GP_ID":"196131985","COUNTRY_CODE":"US","SITE":"AFETR","ECCENTRICITY":"0.00015920","NORAD_CAT_ID":"48374","OBJECT_NAME":"STARLINK-2604","BSTAR":"0.00004244600000","FILE":"3302660","SEMIMAJOR_AXIS":"6925.365","RA_OF_ASC_NODE":"164.8607","MEAN_ELEMENT_THEORY":"SGP4","OBJECT_ID":"2021-038X","ARG_OF_PERICENTER":"69.3784"},{"PERIOD":"95.593","CLASSIFICATION_TYPE":"U","MEAN_ANOMALY":"289.7711","APOAPSIS":"548.354","DECAY_DATE":null,"ELEMENT_SET_NO":"999","EPOCH":"2022-02-16T14:57:34.414272","OBJECT_TYPE":"PAYLOAD","REF_FRAME":"TEME","EPHEMERIS_TYPE":"0","CENTER_NAME":"EARTH","MEAN_MOTION":"15.06388292","RCS_SIZE":"LARGE","REV_AT_EPOCH":"4378","PERIAPSIS":"546.145","MEAN_MOTION_DOT":"0.00000784","MEAN_MOTION_DDOT":"0.0000000000000","TLE_LINE1":"1 48375U 21038Y   22047.62331498  .00000784  00000-0  71576-4 0  9991","INCLINATION":"53.0543","LAUNCH_DATE":"2021-05-04","TIME_SYSTEM":"UTC","TLE_LINE2":"2 48375  53.0543 164.8792 0001595  70.3450 289.7711 15.06388292 43786","GP_ID":"196132735","COUNTRY_CODE":"US","SITE":"AFETR","NORAD_CAT_ID":"48375","ECCENTRICITY":"0.00015950","OBJECT_NAME":"STARLINK-2603","FILE":"3302660","BSTAR":"0.00007157600000","SEMIMAJOR_AXIS":"6925.384","RA_OF_ASC_NODE":"164.8792","MEAN_ELEMENT_THEORY":"SGP4","ARG_OF_PERICENTER":"70.3450","OBJECT_ID":"2021-038Y"},{"OBJECT_NAME":"STARLINK-2610","NORAD_CAT_ID":"48376","ECCENTRICITY":"0.00012830","COUNTRY_CODE":"US","SITE":"AFETR","ARG_OF_PERICENTER":"72.7764","OBJECT_ID":"2021-038Z","MEAN_ELEMENT_THEORY":"SGP4","RA_OF_ASC_NODE":"164.6050","SEMIMAJOR_AXIS":"6925.342","FILE":"3302660","BSTAR":"0.00008755600000","GP_ID":"196131483","TLE_LINE2":"2 48376  53.0545 164.6050 0001283  72.7764 287.3365 15.06402064 43796","TIME_SYSTEM":"UTC","LAUNCH_DATE":"2021-05-04","INCLINATION":"53.0545","REV_AT_EPOCH":"4379","RCS_SIZE":"LARGE","MEAN_MOTION":"15.06402064","CENTER_NAME":"EARTH","EPHEMERIS_TYPE":"0","TLE_LINE1":"1 48376U 21038Z   22047.68596603  .00001023  00000-0  87556-4 0  9991","MEAN_MOTION_DDOT":"0.0000000000000","MEAN_MOTION_DOT":"0.00001023","PERIAPSIS":"546.319","MEAN_ANOMALY":"287.3365","CLASSIFICATION_TYPE":"U","PERIOD":"95.592","REF_FRAME":"TEME","OBJECT_TYPE":"PAYLOAD","EPOCH":"2022-02-16T16:27:47.464992","ELEMENT_SET_NO":"999","DECAY_DATE":null,"APOAPSIS":"548.096"},{"TIME_SYSTEM":"UTC","LAUNCH_DATE":"2021-05-04","TLE_LINE2":"2 48377  53.0547 164.0183 0001440  69.7510 290.3633 15.06401946 43813","INCLINATION":"53.0547","GP_ID":"196131234","ECCENTRICITY":"0.00014400","NORAD_CAT_ID":"48377","COUNTRY_CODE":"US","SITE":"AFETR","OBJECT_NAME":"STARLINK-2499","SEMIMAJOR_AXIS":"6925.343","FILE":"3302660","BSTAR":"0.00015129000000","OBJECT_ID":"2021-038AA","ARG_OF_PERICENTER":"69.7510","RA_OF_ASC_NODE":"164.0183","MEAN_ELEMENT_THEORY":"SGP4","PERIOD":"95.592","CLASSIFICATION_TYPE":"U","MEAN_ANOMALY":"290.3633","ELEMENT_SET_NO":"999","APOAPSIS":"548.205","DECAY_DATE":null,"OBJECT_TYPE":"PAYLOAD","REF_FRAME":"TEME","EPOCH":"2022-02-16T19:33:33.763968","CENTER_NAME":"EARTH","EPHEMERIS_TYPE":"0","REV_AT_EPOCH":"4381","MEAN_MOTION":"15.06401946","RCS_SIZE":"LARGE","MEAN_MOTION_DDOT":"0.0000000000000","PERIAPSIS":"546.210","MEAN_MOTION_DOT":"0.00001973","TLE_LINE1":"1 48377U 21038AA  22047.81497412  .00001973  00000-0  15129-3 0  9995"},{"MEAN_ANOMALY":"293.8605","CLASSIFICATION_TYPE":"U","PERIOD":"95.593","REF_FRAME":"TEME","OBJECT_TYPE":"PAYLOAD","EPOCH":"2022-02-16T19:28:15.821472","ELEMENT_SET_NO":"999","DECAY_DATE":null,"APOAPSIS":"548.185","REV_AT_EPOCH":"4381","RCS_SIZE":"LARGE","MEAN_MOTION":"15.06388907","CENTER_NAME":"EARTH","EPHEMERIS_TYPE":"0","TLE_LINE1":"1 48378U 21038AB  22047.81129423  .00000333  00000-0  41226-4 0  9997","MEAN_MOTION_DDOT":"0.0000000000000","MEAN_MOTION_DOT":"0.00000333","PERIAPSIS":"546.310","GP_ID":"196132485","TLE_LINE2":"2 48378  53.0542 164.0376 0001354  66.2526 293.8605 15.06388907 43814","LAUNCH_DATE":"2021-05-04","TIME_SYSTEM":"UTC","INCLINATION":"53.0542","OBJECT_NAME":"STARLINK-2526","NORAD_CAT_ID":"48378","ECCENTRICITY":"0.00013540","SITE":"AFETR","COUNTRY_CODE":"US","ARG_OF_PERICENTER":"66.2526","OBJECT_ID":"2021-038AB","MEAN_ELEMENT_THEORY":"SGP4","RA_OF_ASC_NODE":"164.0376","SEMIMAJOR_AXIS":"6925.383","FILE":"3302660","BSTAR":"0.00004122600000"},{"TLE_LINE1":"1 48379U 21038AC  22047.80760853  .00003242  00000-0  23641-3 0  9997","MEAN_MOTION_DOT":"0.00003242","PERIAPSIS":"546.163","MEAN_MOTION_DDOT":"0.0000000000000","RCS_SIZE":"MEDIUM","MEAN_MOTION":"15.06402939","REV_AT_EPOCH":"4381","EPHEMERIS_TYPE":"0","CENTER_NAME":"EARTH","EPOCH":"2022-02-16T19:22:57.376992","REF_FRAME":"TEME","OBJECT_TYPE":"PAYLOAD","DECAY_DATE":null,"APOAPSIS":"548.246","ELEMENT_SET_NO":"999","MEAN_ANOMALY":"290.2744","CLASSIFICATION_TYPE":"U","PERIOD":"95.592","MEAN_ELEMENT_THEORY":"SGP4","RA_OF_ASC_NODE":"164.0500","ARG_OF_PERICENTER":"69.8406","OBJECT_ID":"2021-038AC","BSTAR":"0.00023641000000","FILE":"3302660","SEMIMAJOR_AXIS":"6925.340","OBJECT_NAME":"STARLINK-2612","COUNTRY_CODE":"US","SITE":"AFETR","NORAD_CAT_ID":"48379","ECCENTRICITY":"0.00015040","GP_ID":"196132236","INCLINATION":"53.0539","TLE_LINE2":"2 48379  53.0539 164.0500 0001504  69.8406 290.2744 15.06402939 43810","LAUNCH_DATE":"2021-05-04","TIME_SYSTEM":"UTC"},{"LAUNCH_DATE":"2021-05-04","TIME_SYSTEM":"UTC","TLE_LINE2":"2 48380  53.0547 163.9363 0001394  58.3150 301.7975 15.06405546 43813","INCLINATION":"53.0547","GP_ID":"196130984","SEMIMAJOR_AXIS":"6925.332","FILE":"3302660","BSTAR":"0.00008342000000","ARG_OF_PERICENTER":"58.3150","OBJECT_ID":"2021-038AD","RA_OF_ASC_NODE":"163.9363","MEAN_ELEMENT_THEORY":"SGP4","NORAD_CAT_ID":"48380","ECCENTRICITY":"0.00013940","SITE":"AFETR","COUNTRY_CODE":"US","OBJECT_NAME":"STARLINK-2614","ELEMENT_SET_NO":"999","APOAPSIS":"548.162","DECAY_DATE":null,"OBJECT_TYPE":"PAYLOAD","REF_FRAME":"TEME","EPOCH":"2022-02-16T19:58:44.420448","PERIOD":"95.592","CLASSIFICATION_TYPE":"U","MEAN_ANOMALY":"301.7975","MEAN_MOTION_DDOT":"0.0000000000000","PERIAPSIS":"546.231","MEAN_MOTION_DOT":"0.00000961","TLE_LINE1":"1 48380U 21038AD  22047.83245857  .00000961  00000-0  83420-4 0  9991","CENTER_NAME":"EARTH","EPHEMERIS_TYPE":"0","REV_AT_EPOCH":"4381","RCS_SIZE":"LARGE","MEAN_MOTION":"15.06405546"},{"CENTER_NAME":"EARTH","EPHEMERIS_TYPE":"0","REV_AT_EPOCH":"4381","MEAN_MOTION":"15.06398071","RCS_SIZE":"LARGE","MEAN_MOTION_DDOT":"0.0000000000000","PERIAPSIS":"546.305","MEAN_MOTION_DOT":"0.00001581","TLE_LINE1":"1 48381U 21038AE  22047.80392017  .00001581  00000-0  12499-3 0  9996","PERIOD":"95.592","CLASSIFICATION_TYPE":"U","MEAN_ANOMALY":"301.5390","ELEMENT_SET_NO":"999","APOAPSIS":"548.134","DECAY_DATE":null,"OBJECT_TYPE":"PAYLOAD","REF_FRAME":"TEME","EPOCH":"2022-02-16T19:17:38.702688","NORAD_CAT_ID":"48381","ECCENTRICITY":"0.00013200","COUNTRY_CODE":"US","SITE":"AFETR","OBJECT_NAME":"STARLINK-2630","SEMIMAJOR_AXIS":"6925.354","FILE":"3302660","BSTAR":"0.00012499000000","OBJECT_ID":"2021-038AE","ARG_OF_PERICENTER":"58.5728","RA_OF_ASC_NODE":"164.0676","MEAN_ELEMENT_THEORY":"SGP4","LAUNCH_DATE":"2021-05-04","TIME_SYSTEM":"UTC","TLE_LINE2":"2 48381  53.0531 164.0676 0001320  58.5728 301.5390 15.06398071 43811","INCLINATION":"53.0531","GP_ID":"196131734"}];
